[{"OBJECT_NAME":"STARLINK-5727","OBJECT_ID":"2023-020U","EPOCH":"2026-03-09T22:00:01.999584","MEAN_MOTION":15.1135593,"ECCENTRICITY":0.00015609,"INCLINATION":43.001,"RA_OF_ASC_NODE":2.9941,"ARG_OF_PERICENTER":231.255,"MEAN_ANOMALY":270.7764,"EPHEMERIS_TYPE":0,"CLASSIFICATION_TYPE":"U","NORAD_CAT_ID":55587,"ELEMENT_SET_NO":999,"REV_AT_EPOCH":568,"BSTAR":0.026212648,"MEAN_MOTION_DOT":0.00476079,"MEAN_MOTION_DDOT":0},{"OBJECT_NAME":"OBJECT AG","OBJECT_ID":"2025-313AG","EPOCH":"2026-03-09T22:37:52.608000","MEAN_MOTION":15.21637912,"ECCENTRICITY":0.00154165,"INCLINATION":97.3989,"RA_OF_ASC_NODE":145.1743,"ARG_OF_PERICENTER":5.2806,"MEAN_ANOMALY":354.859,"EPHEMERIS_TYPE":0,"CLASSIFICATION_TYPE":"U","NORAD_CAT_ID":67278,"ELEMENT_SET_NO":999,"REV_AT_EPOCH":1086,"BSTAR":0.000405111,"MEAN_MOTION_DOT":9.115e-5,"MEAN_MOTION_DDOT":0}]
